TEVEL2-4                
1 63213U 25052D   26068.69417973  .00020990  00000+0  70363-3 0  9998
2 63213  97.4009 325.1237 0004733  95.3468 264.8313 15.30925813 54879
STARLINK-34857          
1 65102U 25167AA  26068.17597304  .00025844  00000+0  88165-3 0  9996
2 65102  53.1599  28.8656 0001220  62.4752 297.6373 15.30200552 33404
